ORBCOMM FM37 [-]        
1 33064U 08031E   23259.16547706  .00001947  00000+0  31604-3 0  9992
2 33064  48.4403 134.2786 0005957 160.5082 340.7526 14.75041684819421
ORBCOMM FM40 [-]        
1 33065U 08031F   23259.14740295  .00002264  00000+0  35440-3 0  9994
2 33065  48.4424 125.7614 0007430 167.3789 334.9152 14.76057719819435
ORBCOMM FM109 [+]       
1 40086U 14040A   23259.18318099  .00001306  00000+0  33234-3 0  9994
2 40086  47.0036 153.2587 0002376 263.2190  96.8425 14.55899427487739
ORBCOMM FM107 [+]       
1 40087U 14040B   23259.14874441  .00001199  00000+0  30814-3 0  9990
2 40087  47.0054 154.3488 0001612 232.1645 127.9094 14.55897622487805
ORBCOMM FM106 [-]       
1 40088U 14040C   23259.50467026  .00001473  00000+0  29885-3 0  9999
2 40088  47.0632  23.0116 0018274 338.9040  21.1094 14.65974969489510
ORBCOMM FM111 [-]       
1 40089U 14040D   23259.47148922  .00002090  00000+0  29868-3 0  9994
2 40089  47.0053 311.4315 0033228  21.5502 338.6783 14.79917745495283
ORBCOMM FM104 [-]       
1 40090U 14040E   23259.29441361  .00000968  00000+0  26374-3 0  9990
2 40090  47.0054 179.9837 0016816 166.5835 193.5499 14.54459384487405
